satname,norad_id,inclination_deg,eccentricity,mean_motion_rev_per_day,perigee_km,apogee_km,l1,l2
STARLINK-1316,45415,53.1564,0.0006333,15.36378406,452.50072740687756,461.1578957371148,1 45415U 20019BH  26134.51105113  .00025727  00000+0  72264-3 0  9990,2 45415  53.1564 182.1373 0006333 355.9691   4.1260 15.36378406340095
STARLINK-1286,45417,53.0457,0.0003687,15.56227551,396.08805790092174,401.0852139100389,1 45417U 20019BK  26134.41697739  .00031683  00000+0  44862-3 0  9992,2 45417  53.0457 173.6196 0003687 342.4663  17.6219 15.56227551340442
STARLINK-1308,45419,53.0474,0.000821,15.62668428,374.40427100855777,385.5010542345826,1 45419U 20019BM  26134.42346877  .00081189  00000+0  88535-3 0  9990,2 45419  53.0474 193.4900 0008210 324.3073  35.7391 15.62668428339918
STARLINK-1329,45531,53.0417,0.0005118,15.70118958,355.10888333694675,362.00456303199826,1 45531U 20025A   26134.97184792  .00038381  00000+0  31463-3 0  9992,2 45531  53.0417 115.7920 0005118  56.7347 303.4159 15.70118958335834
STARLINK-1338,45532,53.043,0.0004747,15.65385053,368.9272271309783,375.33593212047526,1 45532U 20025B   26134.66570179  .00031030  00000+0  30958-3 0  9999,2 45532  53.0430 123.0635 0004747  34.6735 325.4588 15.65385053335700
STARLINK-1350,45535,53.0718,0.0001554,15.37664474,451.9561438997871,454.0792667822061,1 45535U 20025E   26134.27343223  .00008327  00000+0  23206-3 0  9998,2 45535  53.0718  84.7468 0001554  60.0554 300.0604 15.37664474336248
STARLINK-1362,45538,53.1581,0.0003561,15.34653957,459.51277611839214,464.3842850332685,1 45538U 20025H   26134.85836243 -.00162321  00000+0 -48562-2 0  9992,2 45538  53.1581 152.6527 0003561  54.9304 305.2032 15.34653957335327
STARLINK-1368,45540,53.1555,0.0004262,15.35163451,457.52044397799364,463.3496427877735,1 45540U 20025K   26134.35142798  .00029439  00000+0  85781-3 0  9990,2 45540  53.1555 155.3997 0004262  37.1844 322.9453 15.35163451335232
STARLINK-1371,45542,53.0437,0.0006898,15.57911096,389.032396635861,398.3748279445754,1 45542U 20025M   26134.40469764  .00073768  00000+0  96675-3 0  9991,2 45542  53.0437 132.8299 0006898  31.3042 328.8379 15.57911096335546
STARLINK-1372,45543,53.1573,0.0004178,15.35684344,456.03205061886,461.7450691767108,1 45543U 20025N   26134.44845369  .00014055  00000+0  40934-3 0  9996,2 45543  53.1573 154.5337 0004178  28.9727 331.1507 15.35684344334351
STARLINK-1373,45544,53.0444,0.000423,15.67094357,364.3688416211007,370.0754154438391,1 45544U 20025P   26134.26522946  .00037315  00000+0  34639-3 0  9999,2 45544  53.0444 130.5890 0004230   8.5783 351.5304 15.67094357335560
STARLINK-1327,45555,53.0407,0.0005266,15.64827195,370.1802536145551,377.29132603679955,1 45555U 20025AA  26134.14221881  .00034642  00000+0  35251-3 0  9993,2 45555  53.0407 107.9335 0005266  12.5191 347.5953 15.64827195335860
STARLINK-1356,45564,53.0454,0.0004087,15.54610578,400.513300239455,406.05643447383227,1 45564U 20025AK  26134.37389238  .00064493  00000+0  95758-3 0  9994,2 45564  53.0454 118.6997 0004087  18.7750 341.3410 15.54610578335734
STARLINK-1357,45565,53.0455,0.0007956,15.66667643,363.07931520708826,373.81447950456004,1 45565U 20025AL  26134.54769398  .00033708  00000+0  31865-3 0  9997,2 45565  53.0455  76.1790 0007956  49.7354 310.4356 15.66667643336350
STARLINK-1361,45567,53.0433,0.0002221,15.58316586,391.02506141606773,394.03259117610924,1 45567U 20025AN  26134.96651595  .00064285  00000+0  83226-3 0  9996,2 45567  53.0433 114.3370 0002221  21.7364 338.3741 15.58316586335857
STARLINK-1363,45568,53.0318,0.0001322,16.01135096,270.39513754786003,272.1532418664183,1 45568U 20025AP  26134.06525683  .00280307  44618-4  50530-3 0  9991,2 45568  53.0318  66.1709 0001322 157.2425 202.8663 16.01135096336431
STARLINK-1366,45569,53.0335,8.88e-05,15.96432321,283.73472996439796,284.91798345655116,1 45569U 20025AQ  26135.00002315  .00122780  17192-4  29310-3 0  9998,2 45569  53.0335  63.2717 0000888 126.9025 300.5074 15.96432321  6039
STARLINK-1376,45570,53.1563,0.0005674,15.36046655,453.93468898174797,461.6921255038869,1 45570U 20025AR  26134.36577584  .00033604  00000+0  94978-3 0  9996,2 45570  53.1563 131.3843 0005674  30.3336 329.7994 15.36046655335576
STARLINK-1320,45572,53.0461,0.0003499,15.80378744,327.0218113069004,331.71572384305,1 45572U 20025AT  26134.37911875  .00089123  00000+0  46057-3 0  9996,2 45572  53.0461  18.7856 0003499 214.0044 146.0753 15.80378744337151
STARLINK-1321,45573,53.0428,0.0005477,15.59526986,385.31870788097876,392.7314572262094,1 45573U 20025AU  26134.60659698  .00031920  00000+0  39937-3 0  9996,2 45573  53.0428 100.1606 0005477  45.2118 314.9338 15.59526986335712
STARLINK-1331,45578,53.0465,0.0006716,15.59093542,385.7335830821794,394.8249197911082,1 45578U 20025AZ  26134.94728545  .00040379  00000+0  51115-3 0  9996,2 45578  53.0465 105.3562 0006716  27.3440 332.7924 15.59093542335987
STARLINK-1333,45580,53.1553,0.0003418,15.33073135,464.3102585960105,468.9893548570881,1 45580U 20025BB  26134.69162821  .00029125  00000+0  90683-3 0  9999,2 45580  53.1553 130.8538 0003418  51.9257 308.2053 15.33073135335619
STARLINK-1335,45581,53.1532,0.0004704,15.34587777,458.9275155625446,465.36285304153625,1 45581U 20025BC  26134.68057049  .00025941  00000+0  77148-3 0  9997,2 45581  53.1532 127.8978 0004704  45.4303 314.7083 15.34587777335641
STARLINK-1337,45582,53.0458,0.0007545,15.71023675,350.88925135814316,361.051019025148,1 45582U 20025BD  26134.92003250  .00042420  00000+0  33397-3 0  9999,2 45582  53.0458  96.8691 0007545  35.9804 324.1719 15.71023675336084
STARLINK-1347,45586,53.039,0.0005113,15.6593029,367.1139724825307,374.01519472192285,1 45586U 20025BH  26134.82731534  .00033766  00000+0  32904-3 0  9991,2 45586  53.0390  66.8795 0005113  65.6546 294.5002 15.65930290336490
STARLINK-1364,45589,53.0437,0.0005372,15.60320844,383.0954763026266,390.3636489375058,1 45589U 20025BL  26134.61608669  .00030844  00000+0  37472-3 0  9992,2 45589  53.0437 104.2896 0005372   8.6099 351.5005 15.60320844335951
STARLINK-1365,45590,53.0464,0.0005622,15.55248893,397.61775249442235,405.24069675739156,1 45590U 20025BM  26134.41625884  .00058290  00000+0  84659-3 0  9994,2 45590  53.0464 137.9170 0005622   5.8943 354.2133 15.55248893335483
STARLINK-1443,45660,53.132,0.0004345,15.30558259,471.1682644997891,477.1228980629212,1 45660U 20035D   26134.38433153  .00034560  00000+0  11604-2 0  9998,2 45660  53.1320 120.6045 0004345  26.0850 334.0369 15.30558259328804
STARLINK-1446,45663,53.0232,0.0004555,15.46182456,424.8057211153873,431.00602617327786,1 45663U 20035G   26134.75221619  .00014425  00000+0  29722-3 0  9993,2 45663  53.0232  44.8298 0004555 101.4103 258.7415 15.46182456329889
STARLINK-1448,45665,53.044,0.0007444,15.65327505,367.27200096854176,377.32204714355703,1 45665U 20035J   26134.91968816  .00033241  00000+0  33167-3 0  9995,2 45665  53.0440  90.3905 0007444  28.3697 331.7721 15.65327505329258
STARLINK-1451,45668,53.051,0.000271,15.13098357,524.8866045637797,528.6290575622152,1 45668U 20035M   26134.26510886  .00016339  00000+0  92700-3 0  9993,2 45668  53.0510 129.2412 0002710  43.1707 316.9497 15.13098357328664
STARLINK-1452,45669,53.0267,7.37e-05,15.54648464,402.67491101390806,403.67447635755707,1 45669U 20035N   26134.13030903  .00065401  00000+0  96972-3 0  9996,2 45669  53.0267  67.6064 0000737  83.0364 277.0730 15.54648464329518
STARLINK-1453,45670,53.0416,0.0003329,15.65746404,368.84614657425936,373.3397838851097,1 45670U 20035P   26134.95739162  .00037555  00000+0  36799-3 0  9991,2 45670  53.0416  50.5751 0003329 108.8848 251.2528 15.65746404329719
STARLINK-1454,45671,53.0427,0.0003791,15.63616748,374.6589486848643,379.7808602898458,1 45671U 20035Q   26134.58270659  .00077140  00000+0  81222-3 0  9997,2 45671  53.0427  93.0198 0003791  15.6069 344.5060 15.63616748329185
STARLINK-1456,45673,53.0434,0.0007051,15.6163443,378.16823704733906,387.7027014434698,1 45673U 20035S   26134.59141235  .00054548  00000+0  62343-3 0  9997,2 45673  53.0434  87.2986 0007051  63.0745 297.0987 15.61634430329283
STARLINK-1457,45674,53.033,0.0004901,16.1478645,230.5047610043648,236.9857279804164,1 45674U 20035T   26134.96840390  .00720387  31755-3  53873-3 0  9991,2 45674  53.0330  43.9501 0004901 232.0608 127.9985 16.14786450329882
STARLINK-1458,45675,53.0465,0.0005964,15.52789581,404.53806422476646,412.6332670203219,1 45675U 20035U   26134.60234001  .00056489  00000+0  89752-3 0  9994,2 45675  53.0465 100.2368 0005964  19.9853 340.1389 15.52789581329060
STARLINK-1460,45676,53.1562,0.0004166,15.32897383,464.3212262844909,470.0247385618459,1 45676U 20035V   26134.27331412  .00033635  00000+0  10505-2 0  9999,2 45676  53.1562 119.9618 0004166  60.4128 299.7288 15.32897383328765
STARLINK-1392,45677,53.1527,0.0003511,15.36037285,455.4410953096167,460.24131920675336,1 45677U 20035W   26134.66768444  .00030778  00000+0  87164-3 0  9993,2 45677  53.1527 117.3174 0003511  64.4391 295.6975 15.36037285328876
STARLINK-1394,45679,53.041,0.000799,15.61448658,378.06919506735085,388.8742458026054,1 45679U 20035Y   26134.07771403  .00085295  00000+0  97446-3 0  9997,2 45679  53.0410  80.0409 0007990  63.9715 296.2120 15.61448658329333
STARLINK-1402,45685,53.0416,0.0007475,15.54833273,397.5686986802966,407.70595629989384,1 45685U 20035AE  26134.22905416  .00067357  00000+0  99057-3 0  9993,2 45685  53.0416  68.8540 0007475  87.8691 272.3175 15.54833273329510
STARLINK-1404,45686,53.1583,0.0005268,15.4181012,437.1748605023149,444.35925781904734,1 45686U 20035AF  26134.62561358  .00034106  00000+0  79869-3 0  9996,2 45686  53.1583 100.1811 0005268  74.4197 285.7390 15.41810120329114
STARLINK-1413,45689,53.158,0.0003378,15.32884905,464.89777227094146,469.52248879232957,1 45689U 20035AJ  26134.89872709  .00028280  00000+0  88617-3 0  9990,2 45689  53.1580 101.6862 0003378  79.1063 281.0319 15.32884905329033
